{
  "links" : {
    "next" : "https://api.nasa.gov/neo/rest/v1/feed?start_date=1999-10-09&end_date=1999-10-09&detailed=true&api_key=t0TVs3DtDT2H8Oy2Zy8m2eVrNsAVKAexjcZXUckd",
    "prev" : "https://api.nasa.gov/neo/rest/v1/feed?start_date=1999-10-07&end_date=1999-10-07&detailed=true&api_key=t0TVs3DtDT2H8Oy2Zy8m2eVrNsAVKAexjcZXUckd",
    "self" : "https://api.nasa.gov/neo/rest/v1/feed?start_date=1999-10-08&end_date=1999-10-08&detailed=true&api_key=t0TVs3DtDT2H8Oy2Zy8m2eVrNsAVKAexjcZXUckd"
  },
  "element_count" : 7,
  "near_earth_objects" : {
    "1999-10-08" : [ {
      "links" : {
        "self" : "https://api.nasa.gov/neo/rest/v1/neo/3092239?api_key=t0TVs3DtDT2H8Oy2Zy8m2eVrNsAVKAexjcZXUckd"
      },
      "neo_reference_id" : "3092239",
      "name" : "(1999 VT)",
      "nasa_jpl_url" : "http://ssd.jpl.nasa.gov/sbdb.cgi?sstr=3092239",
      "absolute_magnitude_h" : 19.7,
      "estimated_diameter" : {
        "kilometers" : {
          "estimated_diameter_min" : 0.3051792326,
          "estimated_diameter_max" : 0.6824015094
        },
        "meters" : {
          "estimated_diameter_min" : 305.1792325939,
          "estimated_diameter_max" : 682.4015094011
        },
        "miles" : {
          "estimated_diameter_min" : 0.1896295249,
          "estimated_diameter_max" : 0.4240245083
        },
        "feet" : {
          "estimated_diameter_min" : 1001.2442334633,
          "estimated_diameter_max" : 2238.8501681036
        }
      },
      "is_potentially_hazardous_asteroid" : false,
      "close_approach_data" : [ {
        "close_approach_date" : "1999-10-08",
        "epoch_date_close_approach" : 939366000000,
        "relative_velocity" : {
          "kilometers_per_second" : "11.5171501172",
          "kilometers_per_hour" : "41461.7404220629",
          "miles_per_hour" : "25762.7130972535"
        },
        "miss_distance" : {
          "astronomical" : "0.1545039452",
          "lunar" : "60.1020317078",
          "kilometers" : "23113460",
          "miles" : "14362039"
        },
        "orbiting_body" : "Earth"
      } ],
      "orbital_data" : {
        "orbit_id" : "24",
        "orbit_determination_date" : "2017-04-06 09:17:16",
        "orbit_uncertainty" : "0",
        "minimum_orbit_intersection" : ".150476",
        "jupiter_tisserand_invariant" : "3.649",
        "epoch_osculation" : "2458000.5",
        "eccentricity" : ".4864710533362565",
        "semi_major_axis" : "2.001920688043215",
        "inclination" : "14.37446237727839",
        "ascending_node_longitude" : "38.06403426932282",
        "orbital_period" : "1034.591076707202",
        "perihelion_distance" : "1.028044222235189",
        "perihelion_argument" : "297.7249341824897",
        "aphelion_distance" : "2.97579715385124",
        "perihelion_time" : "2457636.281439839706",
        "mean_anomaly" : "126.7347888549532",
        "mean_motion" : ".3479635656106506",
        "equinox" : "J2000"
      }
    } ]
  }
}